STARLINK-36350          
1 67572U 26016M   26038.16668981 -.00026447  00000+0 -13761-3 0  9991
2 67572  97.2783  97.0698 0001121  88.5529 263.6200 15.80837644  3037
STARLINK-36588          
1 67573U 26016N   26038.16668981  .00016994  00000+0  89286-4 0  9992
2 67573  97.2784  97.0732 0001320  76.6331 283.9156 15.80816456  3198
STARLINK-36594          
1 67574U 26016P   26038.16668981 -.00076295  00000+0 -39975-3 0  9994
2 67574  97.2780  97.0740 0001357  90.5764 275.0041 15.80886864  3194
STARLINK-36400          
1 67575U 26016Q   26038.16668981  .00055226  00000+0  28748-3 0  9990
2 67575  97.2777  97.0784 0001085  87.9063 283.3806 15.80797437  3085
STARLINK-36591          
1 67576U 26016R   26038.16668981  .00052561  00000+0  27370-3 0  9990
2 67576  97.2780  97.0791 0001465  78.5930 298.5918 15.80798906  3140
STARLINK-36590          
1 67577U 26016S   26038.16668981  .00016558  00000+0  86997-4 0  9998
2 67577  97.2767  97.0816 0001418  75.2394 307.3572 15.80820868  3148
STARLINK-36613          
1 67578U 26016T   26038.16668981 -.00050691  00000+0 -26521-3 0  9993
2 67578  97.2766  97.0838 0001785  82.9804 306.1487 15.80832718  3149
STARLINK-36571          
1 67579U 26016U   26037.91671296 -.00264986  00000+0 -14148-2 0  9994
2 67579  97.2775  96.8239 0001523  96.2372 319.6388 15.80972257  3108
STARLINK-36612          
1 67580U 26016V   26037.91671296 -.00627534  00000+0 -34520-2 0  9994
2 67580  97.2772  96.8256 0001392  85.5223 336.4933 15.81219863  3107
STARLINK-36632          
1 67581U 26016W   26037.91671296  .00261618  00000+0  12683-2 0  9996
2 67581  97.2773  96.8337 0001115  74.8532   4.5105 15.81788307  3104
STARLINK-36609          
1 67582U 26016X   26037.91671296 -.01698657  00000+0 -94875-2 0  9990
2 67582  97.2771  96.8355 0001391  64.3280  20.8609 15.82418607  3107
STARLINK-36577          
1 67583U 26016Y   26037.91671296 -.01126357  00000+0 -63110-2 0  9992
2 67583  97.2765  96.8287 0001341  66.2617   3.8775 15.81644193  3100
